[
    {
        "Altitude(m)": 617710.686567328,
        "Argument of Periapsis(deg)": 0.0,
        "Eccentricity": 0.0,
        "Inclination(deg)": 60.0,
        "Latitude(deg)": -41.102787126906094,
        "Longitude(deg)": -25.033261573592323,
        "Mean Anomaly(deg)": -49.09089999999997,
        "RAAN(deg)": 105.0,
        "Satellite Name": "Test1 481",
        "Satellite Number": 481,
        "Semi-Major Axis(m)": 6980739.136638005,
        "Time(s)": 0
    },
    {
        "Altitude(m)": 617517.9845470369,
        "Argument of Periapsis(deg)": 0.00010418945913296404,
        "Eccentricity": 0.0,
        "Inclination(deg)": 60.0,
        "Latitude(deg)": -40.63699300408624,
        "Longitude(deg)": -24.53646879877864,
        "Mean Anomaly(deg)": -48.47079385453808,
        "RAAN(deg)": 104.99957995086028,
        "Satellite Name": "Test1 481",
        "Satellite Number": 481,
        "Semi-Major Axis(m)": 6980739.136638005,
        "Time(s)": 10
    }
]